CCSDS_OMM_VERS = 2.0
CREATION_DATE  = 
ORIGINATOR     = 

OBJECT_NAME    = STARLINK-36419
OBJECT_ID      = 2026-016Z
CENTER_NAME    = EARTH
REF_FRAME      = TEME
TIME_SYSTEM    = UTC
MEAN_ELEMENT_THEORY = SGP/SGP4

EPOCH          = 2026-02-06T22:00:03.999744
MEAN_MOTION    = 15.82680863
ECCENTRICITY   = .00018895
INCLINATION    = 97.2769
RA_OF_ASC_NODE = 96.8383
ARG_OF_PERICENTER = 71.8370
MEAN_ANOMALY   = 19.8871

EPHEMERIS_TYPE = 0
CLASSIFICATION_TYPE = U
NORAD_CAT_ID   = 67584
ELEMENT_SET_NO = 999
REV_AT_EPOCH   = 310
BSTAR          = -.96588219E-2
MEAN_MOTION_DOT = -.1744018E-1
MEAN_MOTION_DDOT = 0

CCSDS_OMM_VERS = 2.0
CREATION_DATE  = 
ORIGINATOR     = 

OBJECT_NAME    = STARLINK-36560
OBJECT_ID      = 2026-016AA
CENTER_NAME    = EARTH
REF_FRAME      = TEME
TIME_SYSTEM    = UTC
MEAN_ELEMENT_THEORY = SGP/SGP4

EPOCH          = 2026-02-06T22:00:03.999744
MEAN_MOTION    = 15.82956492
ECCENTRICITY   = .00016667
INCLINATION    = 97.2766
RA_OF_ASC_NODE = 96.8432
ARG_OF_PERICENTER = 65.8632
MEAN_ANOMALY   = 35.0026

EPHEMERIS_TYPE = 0
CLASSIFICATION_TYPE = U
NORAD_CAT_ID   = 67585
ELEMENT_SET_NO = 999
REV_AT_EPOCH   = 304
BSTAR          = -.86181816E-2
MEAN_MOTION_DOT = -.1597606E-1
MEAN_MOTION_DDOT = 0

CCSDS_OMM_VERS = 2.0
CREATION_DATE  = 
ORIGINATOR     = 

OBJECT_NAME    = CZ-2C DEB
OBJECT_ID      = 2026-009C
CENTER_NAME    = EARTH
REF_FRAME      = TEME
TIME_SYSTEM    = UTC
MEAN_ELEMENT_THEORY = SGP/SGP4

EPOCH          = 2026-02-07T03:16:39.988416
MEAN_MOTION    = 15.11985349
ECCENTRICITY   = .0111263
INCLINATION    = 97.2265
RA_OF_ASC_NODE = 111.6996
ARG_OF_PERICENTER = 142.6910
MEAN_ANOMALY   = 218.2117

EPHEMERIS_TYPE = 0
CLASSIFICATION_TYPE = U
NORAD_CAT_ID   = 67586
ELEMENT_SET_NO = 999
REV_AT_EPOCH   = 346
BSTAR          = .45377E-2
MEAN_MOTION_DOT = .91405E-3
MEAN_MOTION_DDOT = 0

CCSDS_OMM_VERS = 2.0
CREATION_DATE  = 
ORIGINATOR     = 

OBJECT_NAME    = CZ-2C DEB
OBJECT_ID      = 2026-009D
CENTER_NAME    = EARTH
REF_FRAME      = TEME
TIME_SYSTEM    = UTC
MEAN_ELEMENT_THEORY = SGP/SGP4

EPOCH          = 2026-02-07T04:12:45.855936
MEAN_MOTION    = 15.13487858
ECCENTRICITY   = .0107834
INCLINATION    = 97.6720
RA_OF_ASC_NODE = 113.0106
ARG_OF_PERICENTER = 148.0195
MEAN_ANOMALY   = 212.7642

EPHEMERIS_TYPE = 0
CLASSIFICATION_TYPE = U
NORAD_CAT_ID   = 67587
ELEMENT_SET_NO = 999
REV_AT_EPOCH   = 347
BSTAR          = .30481E-2
MEAN_MOTION_DOT = .63379E-3
MEAN_MOTION_DDOT = 0

CCSDS_OMM_VERS = 2.0
CREATION_DATE  = 
ORIGINATOR     = 

OBJECT_NAME    = NAVSTAR 85 (USA 581)
OBJECT_ID      = 2026-017A
CENTER_NAME    = EARTH
REF_FRAME      = TEME
TIME_SYSTEM    = UTC
MEAN_ELEMENT_THEORY = SGP/SGP4

EPOCH          = 2026-02-06T13:41:30.040512
MEAN_MOTION    = 2.00561517
ECCENTRICITY   = .00008655
INCLINATION    = 55.0007
RA_OF_ASC_NODE = 93.9975
ARG_OF_PERICENTER = 80.8749
MEAN_ANOMALY   = 279.2003

EPHEMERIS_TYPE = 0
CLASSIFICATION_TYPE = U
NORAD_CAT_ID   = 67588
ELEMENT_SET_NO = 999
REV_AT_EPOCH   = 42899
BSTAR          = 0
MEAN_MOTION_DOT = -.33E-6
MEAN_MOTION_DDOT = 0

CCSDS_OMM_VERS = 2.0
CREATION_DATE  = 
ORIGINATOR     = 

OBJECT_NAME    = STARLINK-36641
OBJECT_ID      = 2026-018A
CENTER_NAME    = EARTH
REF_FRAME      = TEME
TIME_SYSTEM    = UTC
MEAN_ELEMENT_THEORY = SGP/SGP4

EPOCH          = 2026-02-07T04:00:01.999584
MEAN_MOTION    = 15.90177982
ECCENTRICITY   = .0001616
INCLINATION    = 97.2801
RA_OF_ASC_NODE = 102.3539
ARG_OF_PERICENTER = 58.1729
MEAN_ANOMALY   = 2.5014

EPHEMERIS_TYPE = 0
CLASSIFICATION_TYPE = U
NORAD_CAT_ID   = 67589
ELEMENT_SET_NO = 999
REV_AT_EPOCH   = 243
BSTAR          = -.58986E-2
MEAN_MOTION_DOT = -.1755727E-1
MEAN_MOTION_DDOT = .83896E-3

CCSDS_OMM_VERS = 2.0
CREATION_DATE  = 
ORIGINATOR     = 

OBJECT_NAME    = STARLINK-36376
OBJECT_ID      = 2026-018B
CENTER_NAME    = EARTH
REF_FRAME      = TEME
TIME_SYSTEM    = UTC
MEAN_ELEMENT_THEORY = SGP/SGP4

EPOCH          = 2026-02-07T04:00:01.999584
MEAN_MOTION    = 15.90352243
ECCENTRICITY   = .000157
INCLINATION    = 97.2796
RA_OF_ASC_NODE = 102.3554
ARG_OF_PERICENTER = 58.9561
MEAN_ANOMALY   = 5.1698

EPHEMERIS_TYPE = 0
CLASSIFICATION_TYPE = U
NORAD_CAT_ID   = 67590
ELEMENT_SET_NO = 999
REV_AT_EPOCH   = 248
BSTAR          = -.57922E-2
MEAN_MOTION_DOT = -.173943E-1
MEAN_MOTION_DDOT = .82596E-3

CCSDS_OMM_VERS = 2.0
CREATION_DATE  = 
ORIGINATOR     = 

OBJECT_NAME    = STARLINK-36391
OBJECT_ID      = 2026-018C
CENTER_NAME    = EARTH
REF_FRAME      = TEME
TIME_SYSTEM    = UTC
MEAN_ELEMENT_THEORY = SGP/SGP4

EPOCH          = 2026-02-07T04:00:01.999584
MEAN_MOTION    = 15.90573810
ECCENTRICITY   = .0001423
INCLINATION    = 97.2796
RA_OF_ASC_NODE = 102.3571
ARG_OF_PERICENTER = 62.9419
MEAN_ANOMALY   = 5.2445

EPHEMERIS_TYPE = 0
CLASSIFICATION_TYPE = U
NORAD_CAT_ID   = 67591
ELEMENT_SET_NO = 999
REV_AT_EPOCH   = 248
BSTAR          = -.57399E-2
MEAN_MOTION_DOT = -.1743017E-1
MEAN_MOTION_DDOT = .83094E-3

CCSDS_OMM_VERS = 2.0
CREATION_DATE  = 
ORIGINATOR     = 

OBJECT_NAME    = STARLINK-36603
OBJECT_ID      = 2026-018D
CENTER_NAME    = EARTH
REF_FRAME      = TEME
TIME_SYSTEM    = UTC
MEAN_ELEMENT_THEORY = SGP/SGP4

EPOCH          = 2026-02-07T04:00:01.999584
MEAN_MOTION    = 15.90718197
ECCENTRICITY   = .0001447
INCLINATION    = 97.2793
RA_OF_ASC_NODE = 102.3580
ARG_OF_PERICENTER = 66.1034
MEAN_ANOMALY   = 4.8838

EPHEMERIS_TYPE = 0
CLASSIFICATION_TYPE = U
NORAD_CAT_ID   = 67592
ELEMENT_SET_NO = 999
REV_AT_EPOCH   = 244
BSTAR          = -.57001E-2
MEAN_MOTION_DOT = -.1743612E-1
MEAN_MOTION_DDOT = .83266E-3

CCSDS_OMM_VERS = 2.0
CREATION_DATE  = 
ORIGINATOR     = 

OBJECT_NAME    = STARLINK-36634
OBJECT_ID      = 2026-018E
CENTER_NAME    = EARTH
REF_FRAME      = TEME
TIME_SYSTEM    = UTC
MEAN_ELEMENT_THEORY = SGP/SGP4

EPOCH          = 2026-02-07T04:00:01.999584
MEAN_MOTION    = 15.90946335
ECCENTRICITY   = .0001653
INCLINATION    = 97.2792
RA_OF_ASC_NODE = 102.3596
ARG_OF_PERICENTER = 58.9640
MEAN_ANOMALY   = 16.2279

EPHEMERIS_TYPE = 0
CLASSIFICATION_TYPE = U
NORAD_CAT_ID   = 67593
ELEMENT_SET_NO = 999
REV_AT_EPOCH   = 243
BSTAR          = -.56229E-2
MEAN_MOTION_DOT = -.1740069E-1
MEAN_MOTION_DDOT = .8314E-3

CCSDS_OMM_VERS = 2.0
CREATION_DATE  = 
ORIGINATOR     = 

OBJECT_NAME    = STARLINK-36638
OBJECT_ID      = 2026-018F
CENTER_NAME    = EARTH
REF_FRAME      = TEME
TIME_SYSTEM    = UTC
MEAN_ELEMENT_THEORY = SGP/SGP4

EPOCH          = 2026-02-07T04:00:01.999584
MEAN_MOTION    = 15.91157159
ECCENTRICITY   = .0001687
INCLINATION    = 97.2789
RA_OF_ASC_NODE = 102.3614
ARG_OF_PERICENTER = 58.7148
MEAN_ANOMALY   = 20.5030

EPHEMERIS_TYPE = 0
CLASSIFICATION_TYPE = U
NORAD_CAT_ID   = 67594
ELEMENT_SET_NO = 999
REV_AT_EPOCH   = 243
BSTAR          = -.552E-2
MEAN_MOTION_DOT = -.1726761E-1
MEAN_MOTION_DDOT = .82134E-3

CCSDS_OMM_VERS = 2.0
CREATION_DATE  = 
ORIGINATOR     = 

OBJECT_NAME    = STARLINK-36628
OBJECT_ID      = 2026-018G
CENTER_NAME    = EARTH
REF_FRAME      = TEME
TIME_SYSTEM    = UTC
MEAN_ELEMENT_THEORY = SGP/SGP4

EPOCH          = 2026-02-07T04:00:01.999584
MEAN_MOTION    = 15.91313306
ECCENTRICITY   = .000162
INCLINATION    = 97.2784
RA_OF_ASC_NODE = 102.3625
ARG_OF_PERICENTER = 65.0009
MEAN_ANOMALY   = 17.2311

EPHEMERIS_TYPE = 0
CLASSIFICATION_TYPE = U
NORAD_CAT_ID   = 67595
ELEMENT_SET_NO = 999
REV_AT_EPOCH   = 243
BSTAR          = -.54644E-2
MEAN_MOTION_DOT = -.1723045E-1
MEAN_MOTION_DDOT = .81933E-3

