STARLINK-36419          
1 67584U 26016Z   26037.91671296 -.01744018  00000+0 -96588-2 0  9998
2 67584  97.2769  96.8383 0001889  71.8370  19.8871 15.82680863  3106
STARLINK-36560          
1 67585U 26016AA  26037.91671296 -.01597606  00000+0 -86182-2 0  9997
2 67585  97.2766  96.8432 0001666  65.8632  35.0026 15.82956492  3045
CZ-2C DEB               
1 67586U 26009C   26038.13657394  .00091405  00000+0  45377-2 0  9992
2 67586  97.2265 111.6996 0111263 142.6910 218.2117 15.11985349  3466
CZ-2C DEB               
1 67587U 26009D   26038.17553074  .00063379  00000+0  30481-2 0  9996
2 67587  97.6720 113.0106 0107834 148.0195 212.7642 15.13487858  3477
NAVSTAR 85 (USA 581)    
1 67588U 26017A   26037.57048658 -.00000033  00000+0  00000+0 0  9996
2 67588  55.0007  93.9975 0000865  80.8749 279.2003  2.00561517428992
STARLINK-36641          
1 67589U 26018A   26038.16668981 -.01755727  83896-3 -58986-2 0  9997
2 67589  97.2801 102.3539 0001616  58.1729   2.5014 15.90177982  2433
STARLINK-36376          
1 67590U 26018B   26038.16668981 -.01739430  82596-3 -57922-2 0  9997
2 67590  97.2796 102.3554 0001570  58.9561   5.1698 15.90352243  2483
STARLINK-36391          
1 67591U 26018C   26038.16668981 -.01743017  83094-3 -57399-2 0  9996
2 67591  97.2796 102.3571 0001423  62.9419   5.2445 15.90573810  2483
STARLINK-36603          
1 67592U 26018D   26038.16668981 -.01743612  83266-3 -57001-2 0  9999
2 67592  97.2793 102.3580 0001447  66.1034   4.8838 15.90718197  2442
STARLINK-36634          
1 67593U 26018E   26038.16668981 -.01740069  83140-3 -56229-2 0  9995
2 67593  97.2792 102.3596 0001653  58.9640  16.2279 15.90946335  2432
STARLINK-36638          
1 67594U 26018F   26038.16668981 -.01726761  82134-3 -55200-2 0  9999
2 67594  97.2789 102.3614 0001687  58.7148  20.5030 15.91157159  2430
STARLINK-36628          
1 67595U 26018G   26038.16668981 -.01723045  81933-3 -54644-2 0  9999
2 67595  97.2784 102.3625 0001620  65.0009  17.2311 15.91313306  2435
